SATELIOT_2              
1 60534U 24149BU  26132.18205547  .00000693  00000+0  66476-4 0  9994
2 60534  97.6833 207.7971 0001344 108.1414 251.9954 14.96226256 94584
NIGHTJAR                
1 60535U 24149BV  26132.21027492  .00001790  00000+0  15339-3 0  9990
2 60535  97.6837 209.4212 0001226 154.6633 205.4651 14.98800670137489
LEMUR-2-MARHISYAM       
1 60536U 24149BW  26132.23184225  .00006358  00000+0  38991-3 0  9995
2 60536  97.6876 214.9655 0001458 194.5574 165.5614 15.10495279 95050
SATELIOT_4              
1 60537U 24149BX  26132.20032529  .00001111  00000+0  10278-3 0  9992
2 60537  97.6737 207.3672 0002975 132.7717 227.3756 14.96531959 94591
PICO-02A021             
1 60538U 24149BY  26131.48494977  .00003060  00000+0  23246-3 0  9995
2 60538  97.6767 210.6440 0006590 131.9823 228.1965 15.02902826 94225
ICEYE-X43               
1 60539U 24149BZ  26132.19995006  .00001602  00000+0  13445-3 0  9994
2 60539  97.6770 209.6619 0004424 202.1130 157.9903 14.99743792 94728
HAWK-10A                
1 60540U 24149CA  26132.26241273  .00000526  00000+0  51456-4 0  9993
2 60540  97.6896 208.7930 0003458 169.9750 190.1541 14.96397416 94619
UMBRA-09                
1 60541U 24149CB  26132.19503859  .00010048  00000+0  51275-3 0  9995
2 60541  97.6962 218.8202 0001412 136.5121 223.6223 15.16930594 95262
QPS-SAR-8 (AMATERU-IV)  
1 60542U 24149CC  26132.19880447  .00002516  00000+0  18775-3 0  9996
2 60542  97.6666 211.6625 0002401 198.2110 161.9030 15.03761855 94869
ARCTIC WEATHER SATELLITE
1 60543U 24149CD  26132.08629677  .00000540  00000+0  61844-4 0  9992
2 60543  97.6807 203.5809 0001529 183.7221 176.3986 14.89794324 93929
CAPELLA-15 (ACADIA-5)   
1 60544U 24149CE  26132.18475718  .00000429  00000+0  47268-4 0  9999
2 60544  97.6776 205.9829 0004177 180.2179 179.9039 14.92410859 94481
HAWK-10B                
1 60545U 24149CF  26132.26226666  .00000568  00000+0  55143-4 0  9990
2 60545  97.6816 208.1841 0004805 199.2704 160.8337 14.96397847 94618
ICEYE-X39               
1 60546U 24149CG  26132.18265950  .00001608  00000+0  13512-3 0  9990
2 60546  97.6824 209.6949 0002183 178.2934 181.8297 14.99705245 94720
UMBRA-10                
1 60547U 24149CH  26132.19459042  .00009244  00000+0  47205-3 0  9999
2 60547  97.6967 218.8444 0002190 111.9111 248.2355 15.16929490 95274
ICEYE-X33               
1 60548U 24149CJ  26131.96833483  .00002956  00000+0  23681-3 0  9994
2 60548  97.7165 211.3327 0000870 340.2981  19.8209 15.00910973 94772
ICEYE-X40               
1 60549U 24149CK  26132.09554566  .00001782  00000+0  15656-3 0  9991
2 60549  97.6813 209.1730 0004802 174.6997 185.4277 14.97824910 94674
SATELIOT_1              
1 60550U 24149CL  26131.95576395  .00002291  00000+0  19929-3 0  9994
2 60550  97.6747 208.4590 0006725 179.8157 180.3069 14.97917651 94644
BRO-14                  
1 60551U 24149CM  26132.21371462  .00000799  00000+0  76150-4 0  9994
2 60551  97.6873 208.6378 0006111 206.1082 153.9832 14.96105637 94614
SATELIOT_3              
1 60552U 24149CN  26132.19841019  .00000934  00000+0  84258-4 0  9991
2 60552  97.6820 209.4569 0004719 192.3314 167.7794 14.97901311 94696
BRO-15                  
1 60553U 24149CP  26132.19524712  .00000101  00000+0  14047-4 0  9995
2 60553  97.6805 208.2556 0007549 198.8312 161.2631 14.96064712 94622
UM5-RIBAT               
1 60554U 24149CQ  26132.13949037  .00001617  00000+0  13183-3 0  9993
2 60554  97.6659 210.4259 0003135 118.7811 241.3729 15.00868026 94788
UM5-EOSAT               
1 60555U 24149CR  26132.18261663  .00001728  00000+0  13901-3 0  9992
2 60555  97.6653 211.3697 0006660 221.8762 138.1953 15.01272543 94816
LASARSAT                
1 62391U 24247Q   26132.29010139  .00019719  00000+0  42778-3 0  9996
2 62391  44.9738 103.5696 0004667 113.9002 246.2377 15.44128926 77767
CROCUBE                 
1 62394U 24247T   26132.26341993  .00022659  00000+0  46457-3 0  9996
2 62394  44.9711 101.5870 0004339 116.0555 244.0782 15.45711694 77785
TEVEL2-4                
1 63213U 25052D   26132.23815029  .00010696  00000+0  33432-3 0  9992
2 63213  97.3945  28.5995 0001522 175.5328 184.5928 15.33338445 64605
TEVEL2-5                
1 63214U 25052E   26131.66744097  .00011293  00000+0  35469-3 0  9991
2 63214  97.3944  27.9864 0001431 175.7236 184.4018 15.33170540 64511
TEVEL2-6                
1 63215U 25052F   26132.26629580  .00010678  00000+0  33579-3 0  9994
2 63215  97.3947  28.5700 0001526 180.9469 179.1771 15.33145725 64606
TEVEL2-1                
1 63217U 25052H   26132.21813957  .00010086  00000+0  32224-3 0  9993
2 63217  97.3919  28.1875 0000996 201.3370 158.7831 15.32655705 64585
TEVEL2-3                
1 63218U 25052J   26132.27926857  .00010184  00000+0  32485-3 0  9992
2 63218  97.3923  28.2661 0000974 200.9809 159.1394 15.32704617 64590
TEVEL2-2                
1 63219U 25052K   26131.69631435  .00010457  00000+0  33403-3 0  9997
2 63219  97.3918  27.6678 0000928 207.5776 152.5417 15.32651776 64502
