OBJECT_NAME,OBJECT_ID,EPOCH,MEAN_MOTION,ECCENTRICITY,INCLINATION,RA_OF_ASC_NODE,ARG_OF_PERICENTER,MEAN_ANOMALY,EPHEMERIS_TYPE,CLASSIFICATION_TYPE,NORAD_CAT_ID,ELEMENT_SET_NO,REV_AT_EPOCH,BSTAR,MEAN_MOTION_DOT,MEAN_MOTION_DDOT
SATELIOT_2,2024-149BU,2026-05-12T04:22:09.592608,14.96226256,.00013449,97.6833,207.7971,108.1414,251.9954,0,U,60534,999,9458,.66475756E-4,.693E-5,0
NIGHTJAR,2024-149BV,2026-05-12T05:02:47.753088,14.98800670,.00012265,97.6837,209.4212,154.6633,205.4651,0,U,60535,999,13748,.15339448E-3,.179E-4,0
LEMUR-2-MARHISYAM,2024-149BW,2026-05-12T05:33:51.170400,15.10495279,.0001458,97.6876,214.9655,194.5574,165.5614,0,U,60536,999,9505,.38991068E-3,.6358E-4,0
SATELIOT_4,2024-149BX,2026-05-12T04:48:28.105056,14.96531959,.00029755,97.6737,207.3672,132.7717,227.3756,0,U,60537,999,9459,.10278151E-3,.1111E-4,0
PICO-02A021,2024-149BY,2026-05-11T11:38:19.660128,15.02902826,.00065905,97.6767,210.6440,131.9823,228.1965,0,U,60538,999,9422,.23246488E-3,.306E-4,0
ICEYE-X43,2024-149BZ,2026-05-12T04:47:55.685184,14.99743792,.00044242,97.6770,209.6619,202.1130,157.9903,0,U,60539,999,9472,.13445225E-3,.1602E-4,0
HAWK-10A,2024-149CA,2026-05-12T06:17:52.459872,14.96397416,.00034589,97.6896,208.7930,169.9750,190.1541,0,U,60540,999,9461,.51456223E-4,.526E-5,0
UMBRA-09,2024-149CB,2026-05-12T04:40:51.334176,15.16930594,.00014122,97.6962,218.8202,136.5121,223.6223,0,U,60541,999,9526,.5127514E-3,.10048E-3,0
QPS-SAR-8 (AMATERU-IV),2024-149CC,2026-05-12T04:46:16.706208,15.03761855,.00024018,97.6666,211.6625,198.2110,161.9030,0,U,60542,999,9486,.18775229E-3,.2516E-4,0
ARCTIC WEATHER SATELLITE,2024-149CD,2026-05-12T02:04:16.040928,14.89794324,.0001529,97.6807,203.5809,183.7221,176.3986,0,U,60543,999,9392,.61844259E-4,.54E-5,0
CAPELLA-15 (ACADIA-5),2024-149CE,2026-05-12T04:26:03.020352,14.92410859,.00041775,97.6776,205.9829,180.2179,179.9039,0,U,60544,999,9448,.47267675E-4,.429E-5,0
HAWK-10B,2024-149CF,2026-05-12T06:17:39.839424,14.96397847,.00048057,97.6816,208.1841,199.2704,160.8337,0,U,60545,999,9461,.55143361E-4,.568E-5,0
ICEYE-X39,2024-149CG,2026-05-12T04:23:01.780800,14.99705245,.00021839,97.6824,209.6949,178.2934,181.8297,0,U,60546,999,9472,.13512479E-3,.1608E-4,0
UMBRA-10,2024-149CH,2026-05-12T04:40:12.612288,15.16929490,.00021906,97.6967,218.8444,111.9111,248.2355,0,U,60547,999,9527,.47205456E-3,.9244E-4,0
ICEYE-X33,2024-149CJ,2026-05-11T23:14:24.129312,15.00910973,.00008702,97.7165,211.3327,340.2981,19.8209,0,U,60548,999,9477,.23680979E-3,.2956E-4,0
ICEYE-X40,2024-149CK,2026-05-12T02:17:35.145024,14.97824910,.00048022,97.6813,209.1730,174.6997,185.4277,0,U,60549,999,9467,.1565646E-3,.1782E-4,0
SATELIOT_1,2024-149CL,2026-05-11T22:56:18.005280,14.97917651,.00067257,97.6747,208.4590,179.8157,180.3069,0,U,60550,999,9464,.19928553E-3,.2291E-4,0
BRO-14,2024-149CM,2026-05-12T05:07:44.943168,14.96105637,.00061119,97.6873,208.6378,206.1082,153.9832,0,U,60551,999,9461,.76149775E-4,.799E-5,0
SATELIOT_3,2024-149CN,2026-05-12T04:45:42.640416,14.97901311,.00047194,97.6820,209.4569,192.3314,167.7794,0,U,60552,999,9469,.84257755E-4,.934E-5,0
BRO-15,2024-149CP,2026-05-12T04:41:09.351168,14.96064712,.00075495,97.6805,208.2556,198.8312,161.2631,0,U,60553,999,9462,.14047065E-4,.101E-5,0
UM5-RIBAT,2024-149CQ,2026-05-12T03:20:51.967968,15.00868026,.00031357,97.6659,210.4259,118.7811,241.3729,0,U,60554,999,9478,.13182712E-3,.1617E-4,0
UM5-EOSAT,2024-149CR,2026-05-12T04:22:58.076832,15.01272543,.00066605,97.6653,211.3697,221.8762,138.1953,0,U,60555,999,9481,.1390101E-3,.1728E-4,0
LASARSAT,2024-247Q,2026-05-12T06:57:44.760096,15.44128926,.00046675,44.9738,103.5696,113.9002,246.2377,0,U,62391,999,7776,.42777548E-3,.19719E-3,0
CROCUBE,2024-247T,2026-05-12T06:19:19.481952,15.45711694,.00043392,44.9711,101.5870,116.0555,244.0782,0,U,62394,999,7778,.46456976E-3,.22659E-3,0
TEVEL2-4,2025-052D,2026-05-12T05:42:56.185056,15.33338445,.00015225,97.3945,28.5995,175.5328,184.5928,0,U,63213,999,6460,.3343231E-3,.10696E-3,0
TEVEL2-5,2025-052E,2026-05-11T16:01:06.899808,15.33170540,.0001431,97.3944,27.9864,175.7236,184.4018,0,U,63214,999,6451,.35469332E-3,.11293E-3,0
TEVEL2-6,2025-052F,2026-05-12T06:23:27.957120,15.33145725,.00015264,97.3947,28.5700,180.9469,179.1771,0,U,63215,999,6460,.33579213E-3,.10678E-3,0
TEVEL2-1,2025-052H,2026-05-12T05:14:07.258848,15.32655705,.00009962,97.3919,28.1875,201.3370,158.7831,0,U,63217,999,6458,.32224374E-3,.10086E-3,0
TEVEL2-3,2025-052J,2026-05-12T06:42:08.804448,15.32704617,.00009742,97.3923,28.2661,200.9809,159.1394,0,U,63218,999,6459,.32484599E-3,.10184E-3,0
TEVEL2-2,2025-052K,2026-05-11T16:42:41.559840,15.32651776,.00009281,97.3918,27.6678,207.5776,152.5417,0,U,63219,999,6450,.33402551E-3,.10457E-3,0
